iso_country,iata_code,name,longitude_deg,latitude_deg,timezone,municipality
SB,HIR,Honiara International Airport,160.054993,-9.428,Pacific/Guadalcanal,Honiara
PG,POM,Port Moresby Jacksons International Airport,147.22000122070312,-9.443380355834961,Pacific/Port_Moresby,Port Moresby
IS,KEF,Keflavik International Airport,-22.6056,63.985001,Atlantic/Reykjavik,Reykjavík
CA,YEG,Edmonton International Airport,-113.580002,53.3097,America/Edmonton,Edmonton
CA,YHZ,Halifax / Stanfield International Airport,-63.5085983276,44.8807983398,America/Halifax,Halifax
CA,YOW,Ottawa Macdonald-Cartier International Airport,-75.669197,45.322498,America/Toronto,Ottawa
CA,YQB,Quebec Jean Lesage International Airport,-71.393303,46.7911,America/Toronto,Quebec
CA,YUL,Montreal / Pierre Elliott Trudeau International Airport,-73.742294,45.467837,America/Toronto,Montréal
CA,YVR,Vancouver International Airport,-123.183998108,49.193901062,America/Vancouver,Vancouver
CA,YWG,Winnipeg / James Armstrong Richardson International Airport,-97.2398986816,49.909999847399995,America/Winnipeg,Winnipeg
CA,YYC,Calgary International Airport,-114.009933,51.118822,America/Edmonton,Calgary
CA,YYT,St. John's International Airport,-52.7519,47.618599,America/St_Johns,St. John's
CA,YYZ,Toronto Lester B. Pearson International Airport,-79.6306,43.6772,America/Toronto,Toronto
DZ,ALG,Houari Boumediene Airport,3.214531,36.693886,Africa/Algiers,Algiers
GH,ACC,Kotoka International Airport,-0.16678600013256073,5.605189800262451,Africa/Accra,Accra
NG,ABV,Nnamdi Azikiwe International Airport,7.26317,9.00679,Africa/Lagos,Abuja
NG,LOS,Murtala Muhammed International Airport,3.321160078048706,6.5773701667785645,Africa/Lagos,Lagos
NE,NIM,Diori Hamani International Airport,2.18361,13.4815,Africa/Niamey,Niamey
TN,TUN,Tunis Carthage International Airport,10.2272,36.851002,Africa/Tunis,Tunis
BE,BRU,Brussels Airport,4.48444,50.901402,Europe/Brussels,Zaventem
DE,BER,Berlin Brandenburg Airport,13.500672,52.362247,Europe/Berlin,Berlin
DE,FRA,Frankfurt Airport,8.561096,50.030241,Europe/Berlin,Frankfurt am Main
DE,HAM,Hamburg Helmut Schmidt Airport,9.98823,53.630402,Europe/Berlin,Hamburg
DE,CGN,Cologne Bonn Airport,7.14274,50.865898,Europe/Berlin,Köln (Cologne)
DE,DUS,Düsseldorf Airport,6.76678,51.289501,Europe/Berlin,Düsseldorf
DE,MUC,Munich Airport,11.7861,48.353802,Europe/Berlin,Munich
DE,NUE,Nuremberg Airport,11.078056,49.498699,Europe/Berlin,Nuremberg
DE,LEJ,Leipzig/Halle Airport,12.232705,51.420657,Europe/Berlin,Schkeuditz
DE,STR,Stuttgart Airport,9.22196,48.689899,Europe/Berlin,Stuttgart
DE,HAJ,Hannover Airport,9.68508,52.461102,Europe/Berlin,Hannover
EE,TLL,Lennart Meri Tallinn Airport,24.832706,59.41443,Europe/Tallinn,Tallinn
FI,HEL,Helsinki Vantaa Airport,24.963341,60.318363,Europe/Helsinki,Helsinki
GB,BFS,Belfast International Airport,-6.2158298492399995,54.6575012207,Europe/London,Belfast
GB,BHX,Birmingham International Airport,-1.74803,52.453899,Europe/London,Birmingham
GB,MAN,Manchester Airport,-2.279521,53.349375,Europe/London,Manchester
GB,LTN,London Luton Airport,-0.368333,51.874699,Europe/London,"Luton, Bedfordshire"
GB,LGW,London Gatwick Airport,-0.192089,51.148771,Europe/London,"Gatwick, Surrey"
GB,LHR,London Heathrow Airport,-0.461941,51.4706,Europe/London,London
GB,GLA,Glasgow International Airport,-4.43306,55.871899,Europe/London,"Paisley, Renfrewshire"
GB,EDI,Edinburgh Airport,-3.372288,55.950145,Europe/London,Edinburgh
GB,STN,London Stansted Airport,0.235,51.884998,Europe/London,London
NL,AMS,Amsterdam Airport Schiphol,4.76389,52.308601,Europe/Amsterdam,Amsterdam
NL,EIN,Eindhoven Airport,5.37452983856,51.4500999451,Europe/Amsterdam,Eindhoven
IE,DUB,Dublin Airport,-6.262121,53.428713,Europe/Dublin,Dublin
IE,SNN,Shannon Airport,-8.92482,52.702,Europe/Dublin,Shannon
DK,BLL,Billund Airport,9.160452,55.740496,Europe/Copenhagen,Billund
DK,CPH,Copenhagen Kastrup Airport,12.656000137329,55.617900848389,Europe/Copenhagen,Copenhagen
LU,LUX,Luxembourg-Findel International Airport,6.2044444,49.6233333,Europe/Luxembourg,Luxembourg
NO,BGO,"Bergen Airport, Flesland",5.21814,60.2934,Europe/Oslo,Bergen
NO,OSL,"Oslo Airport, Gardermoen",11.1004,60.193901,Europe/Oslo,Oslo
NO,TOS,"Tromsø Airport, Langnes",18.9189,69.683296,Europe/Oslo,Tromsø
NO,TRD,"Trondheim Airport, Værnes",10.924,63.457802,Europe/Oslo,Trondheim
NO,SVG,"Stavanger Airport, Sola",5.63778,58.876701,Europe/Oslo,Stavanger
PL,GDN,Gdańsk Lech Wałęsa Airport,18.4662,54.377602,Europe/Warsaw,Gdańsk
PL,KRK,Kraków John Paul II International Airport,19.7848,50.077702,Europe/Warsaw,Balice
PL,WAW,Warsaw Chopin Airport,20.967100143399996,52.1656990051,Europe/Warsaw,Warsaw
SE,GOT,Gothenburg-Landvetter Airport,12.279800415039,57.662799835205,Europe/Stockholm,Gothenburg
SE,ARN,Stockholm-Arlanda Airport,17.928829,59.64849,Europe/Stockholm,Stockholm
LV,RIX,Riga International Airport,23.9711,56.923599,Europe/Riga,Riga
LT,VNO,Vilnius International Airport,25.285801,54.634102,Europe/Vilnius,Vilnius
ZA,CPT,Cape Town International Airport,18.6016998291,-33.9648017883,Africa/Johannesburg,Cape Town
ZA,DUR,King Shaka International Airport,31.1197222222,-29.6144444444,Africa/Johannesburg,Durban
ZA,JNB,OR Tambo International Airport,28.246,-26.1392,Africa/Johannesburg,Johannesburg
BW,GBE,Sir Seretse Khama International Airport,25.9182,-24.555201,Africa/Gaborone,Gaborone
SZ,SHO,King Mswati III International Airport,31.716944,-26.358611,Africa/Mbabane,Mpaka
MU,MRU,Sir Seewoosagur Ramgoolam International Airport,57.683601,-20.430201,Indian/Mauritius,Plaine Magnien
ZM,LUN,Kenneth Kaunda International Airport,28.452722,-15.330833,Africa/Lusaka,Lusaka
RE,RUN,Roland Garros Airport,55.518894,-20.890087,Indian/Reunion,Sainte-Marie
MG,TNR,Ivato Airport,47.478802,-18.7969,Indian/Antananarivo,Antananarivo
AO,LAD,Quatro de Fevereiro International Airport,13.2312,-8.85837,Africa/Luanda,Luanda
MZ,MPM,Maputo Airport,32.572601,-25.920799,Africa/Maputo,Maputo
SC,SEZ,Seychelles International Airport,55.521801,-4.67434,Indian/Mahe,Mahe Island
TD,NDJ,N'Djamena International Airport,15.034,12.1337,Africa/Ndjamena,N'Djamena
ZW,HRE,Robert Gabriel Mugabe International Airport,31.0928,-17.931801,Africa/Harare,Harare
NA,WDH,Hosea Kutako International Airport,17.4709,-22.4799,Africa/Windhoek,Windhoek
CD,FIH,Ndjili International Airport,15.4446,-4.38575,Africa/Kinshasa,Kinshasa
ML,BKO,Modibo Keita International Airport,-7.94994,12.5335,Africa/Bamako,Bamako
GM,BJL,Banjul International Airport,-16.652201,13.338,Africa/Banjul,Banjul
ES,FUE,Fuerteventura Airport,-13.8638,28.4527,Atlantic/Canary,El Matorral
ES,LPA,Gran Canaria Airport,-15.3866,27.9319,Atlantic/Canary,Gran Canaria Island
ES,ACE,César Manrique-Lanzarote Airport,-13.6052,28.945499,Atlantic/Canary,San Bartolomé
ES,TFS,Tenerife Sur Airport,-16.5725,28.0445,Atlantic/Canary,Tenerife
SL,FNA,Lungi International Airport,-13.1955,8.61644,Africa/Freetown,Freetown (Lungi-Town)
LR,ROB,Roberts International Airport,-10.3623,6.23379,Africa/Monrovia,Monrovia
MA,CMN,Mohammed V International Airport,-7.58997,33.3675,Africa/Casablanca,Casablanca
SN,DSS,Blaise Diagne International Airport,-17.073333,14.67,Africa/Dakar,Dakar
MR,NKC,Nouakchott–Oumtounsy International Airport,-15.969722,18.31,Africa/Nouakchott,Nouakchott
CV,SID,Amílcar Cabral International Airport,-22.9494,16.7414,Atlantic/Cape_Verde,Espargos
ET,ADD,Addis Ababa Bole International Airport,38.799301,8.97789,Africa/Addis_Ababa,Addis Ababa
DJ,JIB,Djibouti-Ambouli Airport,43.1595,11.5473,Africa/Djibouti,Djibouti City
EG,CAI,Cairo International Airport,31.396694,30.111534,Africa/Cairo,Cairo
EG,HRG,Hurghada International Airport,33.796692,27.176776,Africa/Cairo,Hurghada
EG,SSH,Sharm El Sheikh International Airport,34.394717,27.977272,Africa/Cairo,Sharm El Sheikh
SS,JUB,Juba International Airport,31.601101,4.87201,Africa/Juba,Juba
KE,NBO,Jomo Kenyatta International Airport,36.9277992249,-1.31923997402,Africa/Nairobi,Nairobi
KE,MBA,Moi International Airport,39.5942,-4.03483,Africa/Nairobi,Mombasa
LY,MJI,Mitiga International Airport,13.287878,32.89177,Africa/Tripoli,Tripoli
RW,KGL,Kigali International Airport,30.1395,-1.96863,Africa/Kigali,Kigali
SD,KRT,Khartoum International Airport,32.5532,15.5895,Africa/Khartoum,Khartoum
TZ,DAR,Julius Nyerere International Airport,39.202599,-6.87811,Africa/Dar_es_Salaam,Dar es Salaam
TZ,ZNZ,Abeid Amani Karume International Airport,39.224899,-6.22202,Africa/Dar_es_Salaam,Zanzibar
UG,EBB,Entebbe International Airport,32.443501,0.042386,Africa/Kampala,Kampala
US,ABQ,Albuquerque International Sunport,-106.608925,35.039976,America/Denver,Albuquerque
US,ADW,Joint Base Andrews,-76.866997,38.810799,America/New_York,Camp Springs
US,ATL,Hartsfield Jackson Atlanta International Airport,-84.428101,33.6367,America/New_York,Atlanta
US,AUS,Austin Bergstrom International Airport,-97.662015,30.197535,America/Chicago,Austin
US,BDL,Bradley International Airport,-72.688066,41.93851,America/New_York,Hartford
US,BNA,Nashville International Airport,-86.6782,36.1245,America/Chicago,Nashville
US,BOS,Logan International Airport,-71.0079,42.36197,America/New_York,Boston
US,BUF,Buffalo Niagara International Airport,-78.732201,42.940498,America/New_York,Buffalo
US,BWI,Baltimore/Washington International Thurgood Marshall Airport,-76.668297,39.1754,America/New_York,Baltimore
US,CLE,Cleveland Hopkins International Airport,-81.8498,41.411701,America/New_York,Cleveland
US,CLT,Charlotte Douglas International Airport,-80.94309997558594,35.2140007019043,America/New_York,Charlotte
US,CMH,John Glenn Columbus International Airport,-82.891899,39.998001,America/New_York,Columbus
US,CVG,Cincinnati Northern Kentucky International Airport,-84.667801,39.048801,America/New_York,Cincinnati / Covington
US,DCA,Ronald Reagan Washington National Airport,-77.037697,38.8521,America/New_York,Washington
US,DEN,Denver International Airport,-104.672996521,39.861698150635,America/Denver,Denver
US,DFW,Dallas Fort Worth International Airport,-97.038002,32.896801,America/Chicago,Dallas-Fort Worth
US,DTW,Detroit Metropolitan Wayne County Airport,-83.353786,42.21377,America/Detroit,Detroit
US,EWR,Newark Liberty International Airport,-74.168701,40.692501,America/New_York,Newark
US,FLL,Fort Lauderdale Hollywood International Airport,-80.152702,26.072599,America/New_York,Fort Lauderdale
US,IAD,Washington Dulles International Airport,-77.455803,38.9445,America/New_York,Dulles
US,IAH,George Bush Intercontinental Houston Airport,-95.34140014648438,29.984399795532227,America/Chicago,Houston
US,IND,Indianapolis International Airport,-86.294403,39.7173,America/Indiana/Indianapolis,Indianapolis
US,JAX,Jacksonville International Airport,-81.687813,30.492469,America/New_York,Jacksonville
US,JFK,John F Kennedy International Airport,-73.779317,40.639447,America/New_York,New York
US,LAS,Harry Reid International Airport,-115.151817,36.083361,America/Los_Angeles,Las Vegas
US,LAX,Los Angeles International Airport,-118.407997,33.942501,America/Los_Angeles,Los Angeles
US,LGA,La Guardia Airport,-73.872597,40.777199,America/New_York,New York
US,MCI,Kansas City International Airport,-94.713898,39.2976,America/Chicago,Kansas City
US,MCO,Orlando International Airport,-81.30899810791016,28.429399490356445,America/New_York,Orlando
US,MDW,Chicago Midway International Airport,-87.752403,41.785999,America/Chicago,Chicago
US,MEM,Memphis International Airport,-89.9767,35.0424,America/Chicago,Memphis
US,MIA,Miami International Airport,-80.29060363769531,25.79319953918457,America/New_York,Miami
US,MKE,General Mitchell International Airport,-87.896599,42.947201,America/Chicago,Milwaukee
US,MSP,Minneapolis–Saint Paul International Airport / Wold–Chamberlain Field,-93.221741,44.880081,America/Chicago,Minneapolis
US,MSY,Louis Armstrong New Orleans International Airport,-90.258003,29.993401,America/Chicago,New Orleans
US,OAK,Metropolitan Oakland International Airport,-122.221184,37.720085,America/Los_Angeles,Oakland
US,OKC,Will Rogers World Airport,-97.598248,35.393388,America/Chicago,Oklahoma City
US,OMA,Eppley Airfield,-95.894096,41.3032,America/Chicago,Omaha
US,ONT,Ontario International Airport,-117.600998,34.056,America/Los_Angeles,Ontario
US,ORD,Chicago O'Hare International Airport,-87.9048,41.9786,America/Chicago,Chicago
US,ORF,Norfolk International Airport,-76.201,36.895341,America/New_York,Norfolk
US,PBI,Palm Beach International Airport,-80.095596,26.683201,America/New_York,West Palm Beach
US,PDX,Portland International Airport,-122.598,45.588699,America/Los_Angeles,Portland
US,PHL,Philadelphia International Airport,-75.241096,39.871899,America/New_York,Philadelphia
US,PHX,Phoenix Sky Harbor International Airport,-112.005905,33.435302,America/Phoenix,Phoenix
US,PIT,Pittsburgh International Airport,-80.232903,40.491501,America/New_York,Pittsburgh
US,PVD,Theodore Francis Green State Airport,-71.425668,41.725038,America/New_York,Warwick
US,PWM,Portland International Jetport,-70.309303,43.646198,America/New_York,Portland
US,RDU,Raleigh Durham International Airport,-78.787498,35.877602,America/New_York,Raleigh/Durham
US,RIC,Richmond International Airport,-77.319702,37.505199,America/New_York,Richmond
US,RNO,Reno Tahoe International Airport,-119.767998,39.4991,America/Los_Angeles,Reno
US,RSW,Southwest Florida International Airport,-81.75520324707031,26.53619956970215,America/New_York,Fort Myers
US,SAN,San Diego International Airport,-117.190002441,32.7336006165,America/Los_Angeles,San Diego
US,SAT,San Antonio International Airport,-98.469803,29.533701,America/Chicago,San Antonio
US,SAV,Savannah Hilton Head International Airport,-81.202103,32.127602,America/New_York,Savannah
US,SDF,Louisville Muhammad Ali International Airport,-85.736,38.1744,America/Kentucky/Louisville,Louisville
US,SEA,Seattle–Tacoma International Airport,-122.310276,47.447943,America/Los_Angeles,Seattle
US,SFB,Orlando Sanford International Airport,-81.23750305175781,28.777599334716797,America/New_York,Orlando
US,SFO,San Francisco International Airport,-122.374821,37.619806,America/Los_Angeles,San Francisco
US,SJC,Norman Y. Mineta San Jose International Airport,-121.929188,37.362452,America/Los_Angeles,San Jose
US,SLC,Salt Lake City International Airport,-111.979866,40.78886,America/Denver,Salt Lake City
US,SMF,Sacramento International Airport,-121.591003,38.6954,America/Los_Angeles,Sacramento
US,SNA,John Wayne Orange County International Airport,-117.867996,33.675701,America/Los_Angeles,Santa Ana
US,SRQ,Sarasota Bradenton International Airport,-82.554359,27.394631,America/New_York,Sarasota/Bradenton
US,STL,St Louis Lambert International Airport,-90.370003,38.748697,America/Chicago,St Louis
US,SYR,Syracuse Hancock International Airport,-76.1063003540039,43.11119842529297,America/New_York,Syracuse
US,TPA,Tampa International Airport,-82.533203,27.9755,America/New_York,Tampa
US,TUL,Tulsa International Airport,-95.88809967041016,36.19839859008789,America/Chicago,Tulsa
AL,TIA,Tirana International Airport Mother Teresa,19.7206,41.4147,Europe/Tirane,Rinas
BG,BOJ,Burgas Airport,27.515199661254883,42.56959915161133,Europe/Sofia,Burgas
BG,SOF,Sofia Airport,23.417671,42.696357,Europe/Sofia,Sofia
BG,VAR,Varna Airport,27.8251,43.232101,Europe/Sofia,Varna
CY,LCA,Larnaca International Airport,33.624901,34.875099,Asia/Nicosia,Larnaca
HR,ZAG,Zagreb Airport,16.0688,45.742901,Europe/Zagreb,Zagreb
ES,ALC,Alicante-Elche Miguel Hernández Airport,-0.558156,38.2822,Europe/Madrid,Alicante
ES,BCN,Josep Tarradellas Barcelona-El Prat Airport,2.07846,41.2971,Europe/Madrid,Barcelona
ES,IBZ,Ibiza Airport,1.37312,38.872898,Europe/Madrid,Ibiza (Eivissa)
ES,MAD,Adolfo Suárez Madrid–Barajas Airport,-3.56264,40.471926,Europe/Madrid,Madrid
ES,AGP,Málaga-Costa del Sol Airport,-4.49911,36.6749,Europe/Madrid,Málaga
ES,PMI,Palma de Mallorca Airport,2.73881,39.551701,Europe/Madrid,Palma de Mallorca
ES,SCQ,Santiago-Rosalía de Castro Airport,-8.41514,42.896301,Europe/Madrid,Santiago de Compostela
FR,BOD,Bordeaux-Mérignac Airport,-0.715556,44.8283,Europe/Paris,Bordeaux/Mérignac
FR,TLS,Toulouse-Blagnac Airport,1.36382,43.629101,Europe/Paris,Toulouse/Blagnac
FR,LYS,Lyon Saint-Exupéry Airport,5.081111,45.725556,Europe/Paris,Lyon
FR,MRS,Marseille Provence Airport,5.2125,43.438088,Europe/Paris,Marseille
FR,NCE,Nice-Côte d'Azur Airport,7.21587,43.658401,Europe/Paris,Nice
FR,CDG,Charles de Gaulle International Airport,2.55,49.012798,Europe/Paris,Paris
FR,ORY,Paris-Orly Airport,2.37944,48.72333,Europe/Paris,Paris
FR,BSL,EuroAirport Basel-Mulhouse-Freiburg,7.521117,47.60068,Europe/Paris,Saint-Louis
GR,ATH,Athens Eleftherios Venizelos International Airport,23.9445,37.936401,Europe/Athens,Spata-Artemida
GR,HER,Heraklion International Nikos Kazantzakis Airport,25.1803,35.339699,Europe/Athens,Heraklion
GR,SKG,Thessaloniki Macedonia International Airport,22.970009,40.51928,Europe/Athens,Thessaloniki
HU,BUD,Budapest Liszt Ferenc International Airport,19.262393,47.43018,Europe/Budapest,Budapest
IT,BRI,Bari Karol Wojtyła Airport,16.760599,41.138901,Europe/Rome,Bari
IT,BDS,Brindisi Airport,17.947001,40.6576,Europe/Rome,Brindisi
IT,CTA,Catania-Fontanarossa Airport,15.0664,37.466801,Europe/Rome,Catania
IT,PMO,Falcone–Borsellino Airport,13.091,38.175999,Europe/Rome,Palermo
IT,CAG,Cagliari Elmas Airport,9.05428,39.251499,Europe/Rome,Cagliari
IT,MXP,Milan Malpensa International Airport,8.72811,45.6306,Europe/Rome,Ferno (VA)
IT,BGY,Milan Bergamo Airport / Antonio Locatelli Air Base,9.709223,45.670725,Europe/Rome,Orio al Serio (BG)
IT,TRN,Turin Airport,7.64963,45.200802,Europe/Rome,Caselle Torinese (TO)
IT,BLQ,Bologna Guglielmo Marconi Airport,11.2887,44.5354,Europe/Rome,Bologna
IT,VRN,Verona Villafranca Valerio Catullo Airport,10.887303,45.394955,Europe/Rome,Caselle (VR)
IT,VCE,Venice Marco Polo Airport,12.3519,45.505299,Europe/Rome,Venezia (VE)
IT,FCO,Rome–Fiumicino Leonardo da Vinci International Airport,12.251998,41.804532,Europe/Rome,Rome
IT,NAP,Naples International Airport,14.2908,40.886002,Europe/Rome,Napoli
IT,PSA,Pisa International Airport,10.3927,43.683899,Europe/Rome,Pisa
SI,LJU,Ljubljana Jože Pučnik Airport,14.4576,46.223701,Europe/Ljubljana,Zgornji Brnik
CZ,PRG,Václav Havel Airport Prague,14.259911,50.100874,Europe/Prague,Prague
IL,TLV,Ben Gurion International Airport,34.8867,32.011398,Asia/Jerusalem,Tel Aviv
IL,ETM,Ramon International Airport,35.014116,29.727009,Asia/Jerusalem,Eilat
MT,MLA,Malta International Airport,14.4775,35.857498,Europe/Malta,Valletta
AT,VIE,Vienna International Airport,16.5697,48.110298,Europe/Vienna,Vienna
PT,FAO,Faro Airport,-7.96590995789,37.0144004822,Europe/Lisbon,Faro
PT,FNC,Madeira International Airport Cristiano Ronaldo,-16.7745,32.697899,Atlantic/Madeira,Funchal
PT,PDL,João Paulo II Airport,-25.6979007721,37.7411994934,Atlantic/Azores,Ponta Delgada
PT,OPO,Francisco de Sá Carneiro Airport,-8.68138980865,41.2481002808,Europe/Lisbon,Porto
PT,LIS,Humberto Delgado Airport (Lisbon Portela Airport),-9.13592,38.7813,Europe/Lisbon,Lisbon
RO,OTP,Bucharest Henri Coandă International Airport,26.103396,44.572127,Europe/Bucharest,Otopeni
CH,GVA,Geneva Cointrin International Airport,6.10895,46.238098,Europe/Zurich,Geneva
CH,ZRH,Zürich Airport,8.548056,47.458056,Europe/Zurich,Zurich
TR,ESB,Esenboğa International Airport,32.995098,40.128101,Europe/Istanbul,Ankara
TR,AYT,Antalya International Airport,30.800501,36.898701,Europe/Istanbul,Antalya
TR,ISL,İstanbul Atatürk Airport,28.823714,40.971913,Europe/Istanbul,"Bakırköy, Istanbul"
TR,ADB,Adnan Menderes International Airport,27.157,38.2924,Europe/Istanbul,Gaziemir
TR,DLM,Dalaman International Airport,28.7924995422,36.7131004333,Europe/Istanbul,Dalaman
TR,BJV,Milas Bodrum International Airport,27.664301,37.250599,Europe/Istanbul,Bodrum
TR,SAW,Istanbul Sabiha Gökçen International Airport,29.3092,40.898602,Europe/Istanbul,"Pendik, Istanbul"
TR,IST,İstanbul Airport,28.741951,41.261297,Europe/Istanbul,"Arnavutköy, Istanbul"
MK,SKP,Skopje International Airport,21.622581,41.958087,Europe/Skopje,Ilinden
RS,BEG,Belgrade Nikola Tesla Airport,20.309099,44.818401,Europe/Belgrade,Belgrade
ME,TGD,Podgorica Airport / Podgorica Golubovci Airbase,19.2519,42.359402,Europe/Podgorica,Podgorica
SK,BTS,M. R. Štefánik Airport,17.2127,48.1702,Europe/Bratislava,Bratislava
TC,PLS,Providenciales International Airport,-72.268321,21.773697,America/Grand_Turk,Providenciales
DO,PUJ,Punta Cana International Airport,-68.363403,18.5674,America/Santo_Domingo,Punta Cana
DO,SDQ,Las Américas International Airport,-69.668899536133,18.42970085144,America/Santo_Domingo,Santo Domingo
GT,GUA,La Aurora Airport,-90.527496,14.5833,America/Guatemala,Guatemala City
JM,KIN,Norman Manley International Airport,-76.7874984741211,17.935699462890625,America/Jamaica,Kingston
MX,CZM,Aeropuerto Internacional de Cozumel,-86.930287,20.511425,America/Cancun,Ciudad de Cozumel
MX,DGO,"Aeropuerto Internacional Gral, Guadalupe Victoria",-104.533904,24.125908,America/Monterrey,Ciudad de Durango
MX,GDL,Aeropuerto Internacional Miguel Hidalgo,-103.310108,20.523342,America/Mexico_City,Guadalajara
MX,MID,Aeropuerto Internacional Manuel Crescencio Rejón,-89.662621,20.933384,America/Merida,Ciudad de Mérida
MX,MEX,Aeropuerto Internacional Lic. Benito Juárez,-99.082432,19.435433,America/Mexico_City,Ciudad de México
MX,MTY,Monterrey International Airport,-100.106989,25.778521,America/Monterrey,Monterrey
MX,MZT,General Rafael Buelna International Airport,-106.264572,23.161474,America/Mazatlan,Mazatlàn
MX,PVR,Aeropuerto Internacional Lic. Gustavo Díaz Ordaz,-105.246685,20.679746,America/Mexico_City,Ciudad de Puerto Vallarta
MX,SJD,Aeropuerto Internacional de Los Cabos,-109.720731,23.151919,America/Mazatlan,San José del Cabo
MX,SFH,Aeropuerto Internacional San Felipe,-114.80847,30.931996,America/Tijuana,Mexicali
MX,NLU,Aeropuerto Internacional General Felipe Ángeles,-99.0257,19.7357,America/Mexico_City,Mexico City
MX,TIJ,Aeropuerto Internacional Gral. Abelardo Rodriguez,-116.975856,32.545963,America/Tijuana,Ciudad de Tijuana
MX,CUN,Aeropuerto Internacional de Cancún,-86.874304,21.039444,America/Cancun,Cancún
PA,PTY,Tocumen International Airport,-79.383499,9.07136,America/Panama,Tocumen
CR,LIR,Guanacaste Airport,-85.544403,10.5933,America/Costa_Rica,Liberia
SV,SAL,Monseñor Óscar Arnulfo Romero International Airport,-89.055702,13.4409,America/El_Salvador,San Salvador (San Luis Talpa)
HT,PAP,Toussaint Louverture International Airport,-72.292503,18.58,America/Port-au-Prince,Port-au-Prince
CU,HAV,José Martí International Airport,-82.40910339355469,22.989200592041016,America/Havana,Havana
CU,VRA,Juan Gualberto Gomez International Airport,-81.435303,23.034401,America/Havana,Matanzas
KY,GCM,Owen Roberts International Airport,-81.357697,19.292801,America/Cayman,George Town
BS,NAS,Lynden Pindling International Airport,-77.466202,25.039,America/Nassau,Nassau
BZ,BZE,Philip S. W. Goldson International Airport,-88.303556,17.539951,America/Belize,Belize City
PF,PPT,Faa'a International Airport,-149.606995,-17.553699,Pacific/Tahiti,Papeete
VU,VLI,Bauerfield International Airport,168.320007,-17.699301,Pacific/Efate,Port Vila
NZ,AKL,Auckland International Airport,174.786331,-37.01199,Pacific/Auckland,Auckland
NZ,CHC,Christchurch International Airport,172.53199768066406,-43.48939895629883,Pacific/Auckland,Christchurch
NZ,WLG,Wellington International Airport,174.804992676,-41.3272018433,Pacific/Auckland,Wellington
BH,BAH,Bahrain International Airport,50.63764,26.267295,Asia/Bahrain,Manama
SA,DMM,King Fahd International Airport,49.797901,26.471201,Asia/Riyadh,Ad Dammam
SA,DHA,King Abdulaziz Air Base,50.152,26.2654,Asia/Riyadh,Dhahran
SA,JED,King Abdulaziz International Airport,39.156502,21.6796,Asia/Riyadh,Jeddah
SA,MED,Prince Mohammad Bin Abdulaziz Airport,39.705101,24.5534,Asia/Riyadh,Medina
SA,RUH,King Khaled International Airport,46.698799,24.9576,Asia/Riyadh,Riyadh
IR,IKA,Imam Khomeini International Airport,51.152198791503906,35.416099548339844,Asia/Tehran,Tehran
IR,THR,Mehrabad International Airport,51.31340026855469,35.68920135498047,Asia/Tehran,Tehran
IR,MHD,Mashhad International Airport,59.64099884033203,36.235198974609375,Asia/Tehran,Mashhad
IR,SYZ,Shiraz Shahid Dastghaib International Airport,52.589802,29.5392,Asia/Tehran,Shiraz
JO,AMM,Queen Alia International Airport,35.9931983948,31.7226009369,Asia/Amman,Amman
KW,KWI,Kuwait International Airport,47.968899,29.226601,Asia/Kuwait,Kuwait City
LB,BEY,Beirut Rafic Hariri International Airport,35.488399505615234,33.820899963378906,Asia/Beirut,Beirut
OM,DQM,Duqm International Airport,57.634167,19.501944,Asia/Muscat,Duqm
AE,AUH,Abu Dhabi International Airport,54.651718,24.443764,Asia/Dubai,Abu Dhabi
AE,DXB,Dubai International Airport,55.3643989563,25.2527999878,Asia/Dubai,Dubai
AE,DWC,Al Maktoum International Airport,55.161389,24.896356,Asia/Dubai,Jebel Ali
AE,SHJ,Sharjah International Airport,55.5172,25.3286,Asia/Dubai,Sharjah
OM,MCT,Muscat International Airport,58.284401,23.5933,Asia/Muscat,Muscat
PK,ISB,Islamabad International Airport,72.82566,33.549,Asia/Karachi,Attock
PK,KHI,Jinnah International Airport,67.160797,24.9065,Asia/Karachi,Karachi
PK,LHE,Allama Iqbal International Airport,74.403603,31.521601,Asia/Karachi,Lahore
IQ,BGW,Baghdad International Airport / New Al Muthana Air Base,44.2346,33.262501,Asia/Baghdad,Baghdad
SY,DAM,Damascus International Airport,36.51559829711914,33.4114990234375,Asia/Damascus,Damascus
QA,DOH,Hamad International Airport,51.608056,25.273056,Asia/Qatar,Doha
US,ANC,Ted Stevens Anchorage International Airport,-149.992561,61.179004,America/Anchorage,Anchorage
GU,GUM,Antonio B. Won Pat International Airport,144.796005,13.4834,Pacific/Guam,Hagåtña
US,HNL,Daniel K Inouye International Airport,-157.924228,21.32062,Pacific/Honolulu,Honolulu
US,OGG,Kahului International Airport,-156.431837,20.896263,Pacific/Honolulu,Kahului
TW,KHH,Kaohsiung International Airport,120.349998,22.577101,Asia/Taipei,Kaohsiung (Xiaogang)
TW,TPE,Taiwan Taoyuan International Airport,121.233002,25.0777,Asia/Taipei,Taoyuan (Dayuan)
JP,NRT,Narita International Airport,140.386002,35.764702,Asia/Tokyo,Narita
JP,KIX,Kansai International Airport,135.244003,34.427299,Asia/Tokyo,Osaka
JP,CTS,New Chitose Airport,141.692001,42.7752,Asia/Tokyo,Sapporo
JP,FUK,Fukuoka Airport,130.4510040283203,33.585899353027344,Asia/Tokyo,Fukuoka
JP,KOJ,Kagoshima Airport,130.718994,31.8034,Asia/Tokyo,Kagoshima
JP,NGO,Chubu Centrair International Airport,136.804993,34.858398,Asia/Tokyo,Tokoname
JP,ITM,Osaka International Airport,135.438004,34.7855,Asia/Tokyo,Osaka
JP,SDJ,Sendai Airport,140.917007,38.139702,Asia/Tokyo,Natori
JP,HND,Tokyo Haneda International Airport,139.779999,35.552299,Asia/Tokyo,Tokyo
JP,OKO,Yokota Air Base,139.348007,35.748501,Asia/Tokyo,Fussa
KR,MWX,Muan International Airport,126.382814,34.991406,Asia/Seoul,Piseo-ri (Muan)
KR,CJU,Jeju International Airport,126.492548,33.512058,Asia/Seoul,Jeju City
KR,PUS,Gimhae International Airport,128.938004,35.179501,Asia/Seoul,Busan
KR,ICN,Incheon International Airport,126.450996,37.469101,Asia/Seoul,Seoul
KR,GMP,Gimpo International Airport,126.791,37.5583,Asia/Seoul,Seoul
JP,OKA,Naha Airport / JASDF Naha Air Base,127.646004,26.195801,Asia/Tokyo,Naha
JP,DNA,Kadena Air Base,127.769444,26.351667,Asia/Tokyo,
PH,MNL,Ninoy Aquino International Airport,121.019997,14.5086,Asia/Manila,Manila
PH,DVO,Francisco Bangoy International Airport,125.646004,7.12552,Asia/Manila,Davao
PH,CEB,Mactan Cebu International Airport,123.97974,10.309261,Asia/Manila,Lapu-Lapu City
AR,AEP,Jorge Newbery Airpark,-58.4156,-34.5592,America/Argentina/Buenos_Aires,Buenos Aires
AR,EZE,Minister Pistarini International Airport,-58.5358,-34.8222,America/Argentina/Buenos_Aires,Buenos Aires (Ezeiza)
BR,BEL,Val de Cans/Júlio Cezar Ribeiro International Airport,-48.476207,-1.379279,America/Belem,Belém
BR,BSB,Presidente Juscelino Kubitschek International Airport,-47.920834,-15.869167,America/Sao_Paulo,Brasília
BR,CNF,Tancredo Neves International Airport,-43.966928,-19.63571,America/Sao_Paulo,Belo Horizonte
BR,MAO,Eduardo Gomes International Airport,-60.049702,-3.03861,America/Manaus,Manaus
BR,FLN,Hercílio Luz International Airport,-48.552502,-27.670279,America/Sao_Paulo,Florianópolis
BR,FOR,Pinto Martins International Airport,-38.532222,-3.775833,America/Fortaleza,Fortaleza
BR,GIG,Rio Galeão – Tom Jobim International Airport,-43.250557,-22.809999,America/Sao_Paulo,Rio De Janeiro
BR,GRU,Guarulhos - Governador André Franco Montoro International Airport,-46.467778,-23.431944,America/Sao_Paulo,São Paulo
BR,BPS,Porto Seguro Airport,-39.080584,-16.438426,America/Bahia,Porto Seguro
BR,SSA,Deputado Luiz Eduardo Magalhães International Airport,-38.322498,-12.908611,America/Bahia,Salvador
BR,VIX,Eurico de Aguiar Salles Airport,-40.285,-20.258,America/Sao_Paulo,Vitória
CL,SCL,Comodoro Arturo Merino Benítez International Airport,-70.78579711914062,-33.393001556396484,America/Santiago,Santiago
EC,GYE,José Joaquín de Olmedo International Airport,-79.883598,-2.15742,America/Guayaquil,Guayaquil
EC,UIO,Mariscal Sucre International Airport,-78.354306,-0.125399,America/Guayaquil,Quito
PY,ASU,Aeropuerto Internacional Silvio Pettirossi,-57.519227,-25.240156,America/Asuncion,Asunción
PY,ENO,Aeropuerto Internacional Tte. Amin Ayub González,-55.833807,-27.221691,America/Asuncion,Encarnación
PY,AGT,Aeropuerto Internacional Guaraní,-54.839544,-25.457186,America/Asuncion,Ciudad del Este
PY,ESG,Aeropuerto Internacional Dr. Luis Maria Argaña,-60.618964,-22.033912,America/Asuncion,Mariscal Estigarribia
PY,PJC,Aeropuerto Internacional Dr. Augusto Roberto Fuster,-55.832005,-22.640946,America/Asuncion,Pedro Juan Caballero
CO,BOG,El Dorado International Airport,-74.1469,4.70159,America/Bogota,Bogota
BO,VVI,Viru Viru International Airport,-63.135399,-17.6448,America/La_Paz,Santa Cruz
SR,PBM,Johan Adolf Pengel International Airport,-55.187801,5.45283,America/Paramaribo,Zandery
GF,CAY,Cayenne – Félix Eboué Airport,-52.361326,4.819964,America/Cayenne,Matoury
PE,LIM,Jorge Chávez International Airport,-77.114305,-12.0219,America/Lima,Lima
PE,CUZ,Alejandro Velasco Astete International Airport,-71.9387969971,-13.535699844400002,America/Lima,Cusco
UY,MVD,Carrasco General Cesáreo L. Berisso International Airport,-56.026497,-34.835647,America/Montevideo,Ciudad de la Costa
VE,BLA,General José Antonio Anzoategui International Airport,-64.692222,10.111111,America/Caracas,Barcelona
VE,CCS,Simón Bolívar International Airport,-66.991222,10.601194,America/Caracas,Caracas
CN,TAO,Qingdao Jiaodong International Airport,120.088171,36.361953,Asia/Shanghai,"Jiaozhou, Qingdao"
MQ,FDF,Martinique Aimé Césaire International Airport,-61.003201,14.591,America/Martinique,Fort-de-France
GP,PTP,Pointe-à-Pitre Le Raizet International  Airport,-61.531799,16.265301,America/Guadeloupe,Pointe-à-Pitre
PR,SJU,Luis Munoz Marin International Airport,-66.001801,18.4394,America/Puerto_Rico,San Juan
LC,UVF,Hewanorra International Airport,-60.952599,13.7332,America/St_Lucia,Vieux Fort
AW,AUA,Queen Beatrix International Airport,-70.015198,12.5014,America/Aruba,Oranjestad
BQ,BON,Flamingo International Airport,-68.268501,12.131,America/Kralendijk,"Kralendijk, Bonaire"
CW,CUR,Hato International Airport,-68.959801,12.1889,America/Curacao,Willemstad
SX,SXM,Princess Juliana International Airport,-63.108898,18.041,America/Lower_Princes,Saint Martin
KZ,ALA,Almaty International Airport,77.042828,43.354267,Asia/Almaty,Almaty
KG,FRU,Manas International Airport,74.4776000977,43.0612983704,Asia/Bishkek,Bishkek
AZ,GYD,Heydar Aliyev International Airport,50.04669952392578,40.467498779296875,Asia/Baku,Baku
AM,EVN,Zvartnots International Airport,44.3959007263,40.1473007202,Asia/Yerevan,Yerevan
GE,TBS,Tbilisi International Airport,44.9547,41.669201,Asia/Tbilisi,Tbilisi
RU,VVO,Vladivostok International Airport,132.148155,43.396256,Asia/Vladivostok,Artyom
UA,KBP,Boryspil International Airport,30.894699,50.345001,Europe/Kiev,Boryspil
UA,LWO,Lviv International Airport,23.9561,49.8125,Europe/Uzhgorod,Lviv
RU,LED,Pulkovo Airport,30.262501,59.800301,Europe/Moscow,St. Petersburg
BY,MSQ,Minsk National Airport,28.039964,53.888071,Europe/Minsk,Minsk
RU,KJA,Krasnoyarsk International Airport,92.492437,56.173077,Asia/Krasnoyarsk,Krasnoyarsk
RU,OVB,Novosibirsk Tolmachevo Airport,82.618675,55.019756,Asia/Novosibirsk,Novosibirsk
RU,ROV,Platov International Airport,39.924722,47.493888,Europe/Moscow,Rostov-on-Don
RU,AER,Sochi International Airport,39.9566,43.449902,Europe/Moscow,Sochi
RU,SVX,Koltsovo Airport,60.802700042725,56.743099212646,Asia/Yekaterinburg,Yekaterinburg
TM,ASB,Ashgabat International Airport,58.361,37.986801,Asia/Ashgabat,Ashgabat
UZ,TAS,Tashkent International Airport,69.2811965942,41.257900238,Asia/Tashkent,Tashkent
RU,ZIA,Zhukovsky International Airport,38.150002,55.553299,Europe/Moscow,Moscow
RU,DME,Domodedovo International Airport,37.9063,55.408798,Europe/Moscow,Moscow
RU,SVO,Sheremetyevo International Airport,37.4146,55.972599,Europe/Moscow,Moscow
RU,VKO,Vnukovo International Airport,37.261501,55.591499,Europe/Moscow,Moscow
RU,KZN,Kazan International Airport,49.278701782227,55.606201171875,Europe/Moscow,Kazan
RU,UFA,Ufa International Airport,55.874401092529,54.557498931885,Asia/Yekaterinburg,Ufa
RU,KUF,Kurumoch International Airport,50.164299,53.504902,Europe/Samara,Samara
IN,BOM,Chhatrapati Shivaji International Airport,72.8678970337,19.0886993408,Asia/Kolkata,Mumbai
IN,GOI,Dabolim Airport,73.831398,15.3808,Asia/Kolkata,Vasco da Gama
LK,CMB,Bandaranaike International Colombo Airport,79.88410186767578,7.180759906768799,Asia/Colombo,Colombo
LK,HRI,Mattala Rajapaksa International Airport,81.124128,6.284467,Asia/Colombo,Mattala
KH,PNH,Phnom Penh International Airport,104.844002,11.5466,Asia/Phnom_Penh,Phnom Penh (Pou Senchey)
IN,CCU,Netaji Subhash Chandra Bose International Airport,88.446701,22.654699,Asia/Kolkata,Kolkata
BD,DAC,Hazrat Shahjalal International Airport,90.397783,23.843347,Asia/Dhaka,Dhaka
HK,HKG,Hong Kong International Airport,113.915001,22.308901,Asia/Hong_Kong,Hong Kong
IN,DEL,Indira Gandhi International Airport,77.09519,28.55563,Asia/Kolkata,New Delhi
MO,MFM,Macau International Airport,113.592003,22.149599,Asia/Macau,Nossa Senhora do Carmo
NP,KTM,Tribhuvan International Airport,85.3591,27.6966,Asia/Kathmandu,Kathmandu
IN,BLR,Kempegowda International Airport,77.706299,13.1979,Asia/Kolkata,Bangalore
IN,COK,Cochin International Airport,76.401901,10.152,Asia/Kolkata,Kochi
IN,HYD,Rajiv Gandhi International Airport,78.429855,17.231318,Asia/Kolkata,Hyderabad
IN,MAA,Chennai International Airport,80.169296,12.990005,Asia/Kolkata,Chennai
IN,TRV,Thiruvananthapuram International Airport,76.920097,8.48212,Asia/Kolkata,Thiruvananthapuram
MV,MLE,Malé International Airport,73.52909851074219,4.191830158233643,Indian/Maldives,Malé
TH,DMK,Don Mueang International Airport,100.607002258,13.9125995636,Asia/Bangkok,Bangkok
TH,BKK,Suvarnabhumi Airport,100.74700164794922,13.681099891662598,Asia/Bangkok,Bangkok
TH,CNX,Chiang Mai International Airport,98.962600708,18.766799926799997,Asia/Bangkok,Chiang Mai
TH,HKT,Phuket International Airport,98.316902,8.1132,Asia/Bangkok,Phuket
VN,HAN,Noi Bai International Airport,105.806999,21.221201,Asia/Ho_Chi_Minh,Hanoi (Soc Son)
VN,SGN,Tan Son Nhat International Airport,106.652,10.8188,Asia/Ho_Chi_Minh,Ho Chi Minh City
MM,MDL,Mandalay International Airport,95.97789764404297,21.702199935913086,Asia/Yangon,Mandalay
MM,RGN,Yangon International Airport,96.1332015991,16.907300949099998,Asia/Yangon,Yangon
ID,UPG,Hasanuddin International Airport,119.554001,-5.06163,Asia/Makassar,Ujung Pandang
ID,DPS,Ngurah Rai (Bali) International Airport,115.167,-8.74817,Asia/Makassar,Denpasar
ID,DJJ,Dortheys Hiyo Eluay International Airport,140.519857,-2.579627,Asia/Jayapura,Sentani
ID,BPN,Sultan Aji Muhammad Sulaiman Sepinggan International Airport,116.89452,-1.268342,Asia/Makassar,Balikpapan
ID,SUB,Juanda International Airport,112.787003,-7.37983,Asia/Jakarta,Surabaya
BN,BWN,Brunei International Airport,114.928001,4.9442,Asia/Brunei,Bandar Seri Begawan
ID,CGK,Soekarno-Hatta International Airport,106.65599823,-6.1255698204,Asia/Jakarta,Jakarta
ID,KNO,Kualanamu International Airport,98.870566,3.637847,Asia/Jakarta,Medan
MY,KUL,Kuala Lumpur International Airport,101.709999,2.74558,Asia/Kuala_Lumpur,Sepang
SG,SIN,Singapore Changi Airport,103.994003,1.35019,Asia/Singapore,Singapore
AU,BNE,Brisbane International Airport,153.11700439453125,-27.384199142456055,Australia/Brisbane,Brisbane
AU,MEL,Melbourne International Airport,144.843002,-37.673302,Australia/Melbourne,Melbourne
CN,YNT,Yantai Penglai International Airport,120.978124,37.659724,Asia/Shanghai,Yantai
AU,ADL,Adelaide International Airport,138.533393,-34.947512,Australia/Adelaide,Adelaide
AU,DRW,Darwin International Airport / RAAF Darwin,130.88185,-12.41497,Australia/Darwin,Darwin
AU,PER,Perth International Airport,115.96700286865234,-31.94029998779297,Australia/Perth,Perth
AU,SYD,Sydney Kingsford Smith International Airport,151.177001953125,-33.94609832763672,Australia/Sydney,Sydney
CN,PEK,Beijing Capital International Airport,116.58499908447266,40.080101013183594,Asia/Shanghai,Beijing
CN,PKX,Beijing Daxing International Airport,116.41092,39.509945,Asia/Shanghai,Beijing
CN,HET,Hohhot Baita International Airport,111.824598,40.849658,Asia/Shanghai,Hohhot
CN,TSN,Tianjin Binhai International Airport,117.346000671,39.124401092499994,Asia/Shanghai,Tianjin
CN,TYN,Taiyuan Wusu Airport,112.627998,37.746899,Asia/Shanghai,Taiyuan
CN,CAN,Guangzhou Baiyun International Airport,113.299004,23.392401,Asia/Shanghai,Guangzhou (Huadu)
CN,CSX,Changsha Huanghua International Airport,113.220001,28.189199,Asia/Shanghai,Changsha (Changsha)
CN,KWL,Guilin Liangjiang International Airport,110.039553,25.219828,Asia/Shanghai,Guilin (Lingui)
CN,NNG,Nanning Wuxu Airport,108.171997,22.608299,Asia/Shanghai,Nanning (Jiangnan)
CN,SZX,Shenzhen Bao'an International Airport,113.810997,22.639299,Asia/Shanghai,Shenzhen (Bao'an)
CN,CGO,Zhengzhou Xinzheng International Airport,113.849165,34.526497,Asia/Shanghai,Zhengzhou
CN,WUH,Wuhan Tianhe International Airport,114.213723,30.774798,Asia/Shanghai,Wuhan (Huangpi)
CN,HAK,Haikou Meilan International Airport,110.459,19.9349,Asia/Shanghai,Haikou (Meilan)
CN,SYX,Sanya Phoenix International Airport,109.412003,18.3029,Asia/Shanghai,Sanya (Tianya)
CN,LHW,Lanzhou Zhongchuan International Airport,103.620003,36.515202,Asia/Shanghai,Lanzhou (Yongdeng)
CN,XIY,Xi'an Xianyang International Airport,108.751999,34.447102,Asia/Shanghai,Xianyang (Weicheng)
MN,UBN,Ulaanbaatar Chinggis Khaan International Airport,106.819833,47.646916,Asia/Ulaanbaatar,Ulaanbaatar (Sergelen)
CN,KMG,Kunming Changshui International Airport,102.936743,25.110313,Asia/Shanghai,Kunming
CN,XMN,Xiamen Gaoqi International Airport,118.12799835205078,24.54400062561035,Asia/Shanghai,Xiamen
CN,KHN,Nanchang Changbei International Airport,115.90271,28.864815,Asia/Shanghai,Nanchang
CN,FOC,Fuzhou Changle International Airport,119.66318,25.934669,Asia/Shanghai,Fuzhou
CN,HGH,Hangzhou Xiaoshan International Airport,120.428865,30.23609,Asia/Shanghai,Hangzhou
CN,TNA,Jinan Yaoqiang International Airport,117.216003,36.857201,Asia/Shanghai,Jinan
CN,NGB,Ningbo Lishe International Airport,121.46199798583984,29.82670021057129,Asia/Shanghai,Ningbo
CN,NKG,Nanjing Lukou International Airport,118.865949,31.735032,Asia/Shanghai,Nanjing
CN,PVG,Shanghai Pudong International Airport,121.805,31.1434,Asia/Shanghai,Shanghai (Pudong)
CN,SHA,Shanghai Hongqiao International Airport,121.33426,31.198104,Asia/Shanghai,Shanghai (Minhang)
CN,WNZ,Wenzhou Longwan International Airport,120.851997,27.912201,Asia/Shanghai,Wenzhou
CN,CKG,Chongqing Jiangbei International Airport,106.651895,29.712254,Asia/Shanghai,Chongqing
CN,KWE,Guiyang Longdongbao International Airport,106.803331,26.541466,Asia/Shanghai,Guiyang (Nanming)
CN,CTU,Chengdu Shuangliu International Airport,103.945966,30.558257,Asia/Shanghai,Chengdu (Shuangliu)
CN,URC,Ürümqi Diwopu International Airport,87.47419738769531,43.907100677490234,Asia/Urumqi,Ürümqi
CN,CGQ,Changchun Longjia International Airport,125.684998,43.996201,Asia/Shanghai,Changchun
CN,HRB,Harbin Taiping International Airport,126.25,45.623402,Asia/Shanghai,Harbin
CN,DLC,Dalian Zhoushuizi International Airport,121.539001,38.965698,Asia/Shanghai,"Ganjingzi, Dalian"
CN,SHE,Shenyang Taoxian International Airport,123.483002,41.639801,Asia/Shanghai,"Hunnan, Shenyang"
